NORAD_CAT_ID,OBJECT_NAME,OBJECT_TYPE,EPOCH,MEAN_MOTION,ECCENTRICITY,INCLINATION,RA_OF_ASC_NODE,ARG_OF_PERICENTER,MEAN_ANOMALY,BSTAR,MEAN_MOTION_DOT,MEAN_MOTION_DDOT,TLE_LINE0,TLE_LINE1,TLE_LINE2,SEMIMAJOR_AXIS,PERIOD,APOGEE,PERIGEE,DECAYED
52134.0,STARLINK-3721,PAYLOAD,2023-11-05 09:06:40,15.08850163,0.0001554,53.2166,308.7606,101.3401,258.7766,0.00022547,3.303e-05,0.0,0 STARLINK-3721,1 52134U 22029AY  23309.37963829  .00003303  00000-0  22547-3 0  9996,2 52134  53.2166 308.7606 0001554 101.3401 258.7766 15.08850163 91812,6917.849,95.437,540.789,538.639,0.0
52134.0,STARLINK-3721,PAYLOAD,2023-11-05 17:03:36,15.08840503,0.0001803,53.2169,307.2715,89.5728,270.547,9.6767e-05,1.252e-05,0.0,0 STARLINK-3721,1 52134U 22029AY  23309.71084387  .00001252  00000-0  96767-4 0  9994,2 52134  53.2169 307.2715 0001803  89.5728 270.5470 15.08840503 91862,6917.879,95.438,540.991,538.497,0.0
52134.0,STARLINK-3721,PAYLOAD,2023-11-06 07:22:03,15.08873267,0.0001643,53.2158,304.5953,90.5503,269.5677,0.00064753,0.00010042,0.0,0 STARLINK-3721,1 52134U 22029AY  23310.30698713  .00010042  00000-0  64753-3 0  9991,2 52134  53.2158 304.5953 0001643  90.5503 269.5677 15.08873267 91959,6917.779,95.435,540.78,538.507,0.0
52134.0,STARLINK-3721,PAYLOAD,2023-11-07 04:02:06,15.08806987,0.0001525,53.2175,300.7306,85.3619,274.7547,-0.00061055,-9.983e-05,0.0,0 STARLINK-3721,1 52134U 22029AY  23311.16813330 -.00009983  00000-0 -61055-3 0  9996,2 52134  53.2175 300.7306 0001525  85.3619 274.7547 15.08806987 92081,6917.981,95.44,540.901,538.791,0.0
52134.0,STARLINK-3721,PAYLOAD,2023-11-07 08:48:16,15.08817681,0.0001265,53.2167,299.8387,88.1766,271.9371,-0.00033064,-5.543e-05,0.0,0 STARLINK-3721,1 52134U 22029AY  23311.36685275 -.00005543  00000-0 -33064-3 0  9990,2 52134  53.2167 299.8387 0001265  88.1766 271.9371 15.08817681 92115,6917.949,95.439,540.689,538.938,0.0
52134.0,STARLINK-3721,PAYLOAD,2023-11-07 23:06:44,15.08828139,0.0001151,53.2158,297.1634,82.7033,277.409,0.00022239,3.252e-05,0.0,0 STARLINK-3721,1 52134U 22029AY  23311.96301573  .00003252  00000-0  22239-3 0  9997,2 52134  53.2158 297.1634 0001151  82.7033 277.4090 15.08828139 92201,6917.917,95.438,540.578,538.985,0.0
52134.0,STARLINK-3721,PAYLOAD,2023-11-08 05:28:17,15.08838617,0.0001053,53.2155,295.9727,90.9007,269.2106,0.0011814,0.00018563,0.0,0 STARLINK-3721,1 52134U 22029AY  23312.22797932  .00018563  00000-0  11814-2 0  9992,2 52134  53.2155 295.9727 0001053  90.9007 269.2106 15.08838617 92243,6917.885,95.438,540.478,539.021,0.0
52134.0,STARLINK-3721,PAYLOAD,2023-11-08 16:35:59,15.0885524,0.0001132,53.2164,293.8921,88.8571,271.2551,0.00085152,0.00013296,0.0,0 STARLINK-3721,1 52134U 22029AY  23312.69165607  .00013296  00000-0  85152-3 0  9996,2 52134  53.2164 293.8921 0001132  88.8571 271.2551 15.08855240 92312,6917.834,95.437,540.482,538.916,0.0
52134.0,STARLINK-3721,PAYLOAD,2023-11-09 08:29:49,15.08882586,0.0001381,53.2164,290.9167,96.2825,263.8325,0.001133,0.00017811,0.0,0 STARLINK-3721,1 52134U 22029AY  23313.35404371  .00017811  00000-0  11330-2 0  9997,2 52134  53.2164 290.9167 0001381  96.2825 263.8325 15.08882586 92413,6917.75,95.435,540.571,538.66,0.0
52134.0,STARLINK-3721,PAYLOAD,2023-11-10 03:34:27,15.08848369,0.0001679,53.2155,287.3473,105.2361,254.8817,0.00050855,7.817e-05,0.0,0 STARLINK-3721,1 52134U 22029AY  23314.14892770  .00007817  00000-0  50855-3 0  9990,2 52134  53.2155 287.3473 0001679 105.2361 254.8817 15.08848369 92539,6917.855,95.437,540.881,538.558,0.0
52134.0,STARLINK-3721,PAYLOAD,2023-11-10 08:20:36,15.0884759,0.0001551,53.2158,286.4563,90.4918,269.6252,0.00048317,7.412e-05,0.0,0 STARLINK-3721,1 52134U 22029AY  23314.34764864  .00007412  00000-0  48317-3 0  9995,2 52134  53.2158 286.4563 0001551  90.4918 269.6252 15.08847590 92569,6917.857,95.437,540.795,538.649,0.0
52134.0,STARLINK-3721,PAYLOAD,2023-11-11 03:25:14,15.08840309,0.0001643,53.216,282.8848,92.8427,267.2754,0.0011296,0.00017735,0.0,0 STARLINK-3721,1 52134U 22029AY  23315.14253335  .00017735  00000-0  11296-2 0  9994,2 52134  53.2160 282.8848 0001643  92.8427 267.2754 15.08840309 92686,6917.879,95.438,540.881,538.608,0.0
52134.0,STARLINK-3721,PAYLOAD,2023-11-11 05:00:38,15.08842369,0.0001632,53.2162,282.5878,89.5352,270.5828,0.0011624,0.00018261,0.0,0 STARLINK-3721,1 52134U 22029AY  23315.20877343  .00018261  00000-0  11624-2 0  9992,2 52134  53.2162 282.5878 0001632  89.5352 270.5828 15.08842369 92694,6917.873,95.437,540.867,538.609,0.0
52134.0,STARLINK-3721,PAYLOAD,2023-11-11 22:29:52,15.088442,0.0001698,53.2157,279.3187,103.0965,257.0217,0.00054892,8.46e-05,0.0,0 STARLINK-3721,1 52134U 22029AY  23315.93741249  .00008460  00000-0  54892-3 0  9992,2 52134  53.2157 279.3187 0001698 103.0965 257.0217 15.08844200 92800,6917.868,95.437,540.907,538.558,0.0
52134.0,STARLINK-3721,PAYLOAD,2023-11-12 03:16:01,15.08847018,0.0001805,53.2165,278.4269,105.0086,255.1106,0.00047343,7.256e-05,0.0,0 STARLINK-3721,1 52134U 22029AY  23316.13613137  .00007256  00000-0  47343-3 0  9994,2 52134  53.2165 278.4269 0001805 105.0086 255.1106 15.08847018 92835,6917.859,95.437,540.973,538.475,0.0
52134.0,STARLINK-3721,PAYLOAD,2023-11-12 04:51:24,15.08847954,0.0001787,53.2166,278.1315,102.6497,257.4695,0.00054787,8.444e-05,0.0,0 STARLINK-3721,1 52134U 22029AY  23316.20237139  .00008444  00000-0  54787-3 0  9996,2 52134  53.2166 278.1315 0001787 102.6497 257.4695 15.08847954 92841,6917.856,95.437,540.957,538.485,0.0
52134.0,STARLINK-3721,PAYLOAD,2023-11-12 14:23:43,15.08848764,0.0001653,53.2162,276.3451,98.8427,261.2753,0.00046238,7.08e-05,0.0,0 STARLINK-3721,1 52134U 22029AY  23316.59981099  .00007080  00000-0  46238-3 0  9996,2 52134  53.2162 276.3451 0001653  98.8427 261.2753 15.08848764 92904,6917.854,95.437,540.862,538.575,0.0
52134.0,STARLINK-3721,PAYLOAD,2023-11-13 03:06:48,15.08840054,0.0001822,53.217,273.9702,102.5567,257.5629,1.6749e-05,-2.2e-07,0.0,0 STARLINK-3721,1 52134U 22029AY  23317.12973332 -.00000022  00000-0  16749-4 0  9992,2 52134  53.2170 273.9702 0001822 102.5567 257.5629 15.08840054 92983,6917.88,95.438,541.006,538.485,0.0
52134.0,STARLINK-3721,PAYLOAD,2023-11-13 07:52:58,15.08846505,0.0001833,53.2174,273.0737,90.0032,270.117,0.00017901,2.562e-05,0.0,0 STARLINK-3721,1 52134U 22029AY  23317.32845070  .00002562  00000-0  17901-3 0  9991,2 52134  53.2174 273.0737 0001833  90.0032 270.1170 15.08846505 93010,6917.861,95.437,540.994,538.457,0.0
52134.0,STARLINK-3721,PAYLOAD,2023-11-14 04:32:59,15.08843643,0.0001668,53.2162,269.2082,83.8879,276.2303,6.1128e-05,6.85e-06,0.0,0 STARLINK-3721,1 52134U 22029AY  23318.18957342  .00000685  00000-0  61128-4 0  9997,2 52134  53.2162 269.2082 0001668  83.8879 276.2303 15.08843643 93141,6917.869,95.437,540.888,538.58,0.0
52134.0,STARLINK-3721,PAYLOAD,2023-11-14 20:26:51,15.08836705,0.0001915,53.2171,266.2384,78.6748,281.4459,0.00010133,1.325e-05,0.0,0 STARLINK-3721,1 52134U 22029AY  23318.85198017  .00001325  00000-0  10133-3 0  9998,2 52134  53.2171 266.2384 0001915  78.6748 281.4459 15.08836705 93247,6917.89,95.438,541.08,538.431,0.0
52134.0,STARLINK-3721,PAYLOAD,2023-11-15 13:56:05,15.08842213,0.0001785,53.2167,262.9645,83.9158,276.2038,0.000119,1.606e-05,0.0,0 STARLINK-3721,1 52134U 22029AY  23319.58061707  .00001606  00000-0  11900-3 0  9999,2 52134  53.2167 262.9645 0001785  83.9158 276.2038 15.08842213 93352,6917.874,95.437,540.973,538.504,0.0
52134.0,STARLINK-3721,PAYLOAD,2023-11-16 02:39:10,15.08846872,0.0001732,53.2173,260.5848,78.9904,281.1283,0.00015313,2.15e-05,0.0,0 STARLINK-3721,1 52134U 22029AY  23320.11053566  .00002150  00000-0  15313-3 0  9991,2 52134  53.2173 260.5848 0001732  78.9904 281.1283 15.08846872 93434,6917.859,95.437,540.923,538.526,0.0
52134.0,STARLINK-3721,PAYLOAD,2023-11-17 02:29:57,15.08842061,0.0001642,53.2168,256.1246,79.5803,280.5375,7.2597e-05,8.68e-06,0.0,0 STARLINK-3721,1 52134U 22029AY  23321.10413718  .00000868  00000-0  72597-4 0  9992,2 52134  53.2168 256.1246 0001642  79.5803 280.5375 15.08842061 93583,6917.874,95.437,540.875,538.603,0.0
52134.0,STARLINK-3721,PAYLOAD,2023-11-17 19:59:12,15.08836338,0.000175,53.2182,252.8563,76.1372,283.9815,-6.2312e-07,-2.98e-06,0.0,0 STARLINK-3721,1 52134U 22029AY  23321.83278360 -.00000298  00000-0 -62312-6 0  9999,2 52134  53.2182 252.8563 0001750  76.1372 283.9815 15.08836338 93696,6917.892,95.438,540.967,538.546,0.0
52134.0,STARLINK-3721,PAYLOAD,2023-11-18 11:53:03,15.08835823,0.000169,53.2186,249.8816,90.2252,269.8934,2.2636e-05,7.2e-07,0.0,0 STARLINK-3721,1 52134U 22029AY  23322.49518324  .00000072  00000-0  22636-4 0  9990,2 52134  53.2186 249.8816 0001690  90.2252 269.8934 15.08835823 93798,6917.893,95.438,540.927,538.589,0.0
52134.0,STARLINK-3721,PAYLOAD,2023-11-18 23:00:45,15.08837009,0.0001579,53.2177,247.7976,85.9836,274.1337,5.3635e-05,5.66e-06,0.0,0 STARLINK-3721,1 52134U 22029AY  23322.95886137  .00000566  00000-0  53635-4 0  9992,2 52134  53.2177 247.7976 0001579  85.9836 274.1337 15.08837009 93869,6917.89,95.438,540.847,538.662,0.0
52134.0,STARLINK-3721,PAYLOAD,2023-11-19 00:36:08,15.08845193,0.0001797,53.218,247.5029,110.8037,249.3148,2.1486e-05,5.4e-07,0.0,0 STARLINK-3721,1 52134U 22029AY  23323.02509710  .00000054  00000-0  21486-4 0  9991,2 52134  53.2180 247.5029 0001797 110.8037 249.3148 15.08845193 93871,6917.865,95.437,540.973,538.486,0.0
52134.0,STARLINK-3721,PAYLOAD,2023-11-19 11:43:50,15.08840496,0.0001687,53.2182,245.4205,84.8001,275.3184,0.00011574,1.554e-05,0.0,0 STARLINK-3721,1 52134U 22029AY  23323.48877847  .00001554  00000-0  11574-3 0  9992,2 52134  53.2182 245.4205 0001687  84.8001 275.3184 15.08840496 93943,6917.879,95.438,540.911,538.577,0.0
52134.0,STARLINK-3721,PAYLOAD,2023-11-20 03:37:41,15.08840177,0.0001636,53.2181,242.4477,88.8698,271.2481,9.3903e-05,1.207e-05,0.0,0 STARLINK-3721,1 52134U 22029AY  23324.15117904  .00001207  00000-0  93903-4 0  9990,2 52134  53.2181 242.4477 0001636  88.8698 271.2481 15.08840177 94043,6917.88,95.438,540.877,538.613,0.0
